KUIPER-00176            
1 65788U 25217AC  26016.41517872  .00001889  00000+0  27689-3 0  9991
2 65788  51.9009 274.2622 0001069 110.2013 249.9064 14.79909601 17131
KUIPER-00101            
1 65947U 25228A   26016.56222543  .00002060  00000+0  29910-3 0  9995
2 65947  51.8975 231.0955 0001222  95.2463 264.8639 14.79941800 15512
KUIPER-00113            
1 65948U 25228B   26016.60134903  .00001966  00000+0  28669-3 0  9997
2 65948  51.8967 225.9389 0000629 117.8499 242.2527 14.79953388 15584
KUIPER-00117            
1 65949U 25228C   26016.56488438  .00001962  00000+0  28617-3 0  9997
2 65949  51.8980 228.6020 0000904 119.5017 240.6035 14.79946124 15545
KUIPER-00121            
1 65950U 25228D   26016.58336806  .00059277  00000+0  83177-2 0  9995
2 65950  51.8976 223.4369 0001128  86.9347 200.1078 14.76861826  4945
KUIPER-00122            
1 65951U 25228E   26016.32326828  .00006536  00000+0  88505-3 0  9992
2 65951  51.8960 234.6414 0001704 127.0496 233.0622 14.79956186 15440
KUIPER-00123            
1 65952U 25228F   26016.62717849  .00004687  00000+0  64354-3 0  9994
2 65952  51.8966 233.3215 0000647 163.0839 197.0145 14.79925748 15481
KUIPER-00124            
1 65953U 25228G   26016.29749735 -.00000549  00000+0 -42985-4 0  9999
2 65953  51.9003 227.2670 0000775  96.1517 263.9534 14.79941484 15540
