<?xml version="1.0" encoding="UTF-8"?>
<ndm xmlns:xsi="http://www.w3.org/2001/XMLSchema-instance" xsi:noNamespaceSchemaLocation="https://sanaregistry.org/r/ndmxml_unqualified/ndmxml-2.0.0-master-2.0.xsd">
<omm id="CCSDS_OMM_VERS" version="2.0">
<header><CREATION_DATE/><ORIGINATOR/></header><body><segment><metadata><OBJECT_NAME>KUIPER-00176</OBJECT_NAME><OBJECT_ID>2025-217AC</OBJECT_ID><CENTER_NAME>EARTH</CENTER_NAME><REF_FRAME>TEME</REF_FRAME><TIME_SYSTEM>UTC</TIME_SYSTEM><MEAN_ELEMENT_THEORY>SGP4</MEAN_ELEMENT_THEORY></metadata><data><meanElements><EPOCH>2026-01-16T09:57:51.441408</EPOCH><MEAN_MOTION>14.79909601</MEAN_MOTION><ECCENTRICITY>.00010699</ECCENTRICITY><INCLINATION>51.9009</INCLINATION><RA_OF_ASC_NODE>274.2622</RA_OF_ASC_NODE><ARG_OF_PERICENTER>110.2013</ARG_OF_PERICENTER><MEAN_ANOMALY>249.9064</MEAN_ANOMALY></meanElements><tleParameters><EPHEMERIS_TYPE>0</EPHEMERIS_TYPE><CLASSIFICATION_TYPE>U</CLASSIFICATION_TYPE><NORAD_CAT_ID>65788</NORAD_CAT_ID><ELEMENT_SET_NO>999</ELEMENT_SET_NO><REV_AT_EPOCH>1713</REV_AT_EPOCH><BSTAR>.27688714E-3</BSTAR><MEAN_MOTION_DOT>.1889E-4</MEAN_MOTION_DOT><MEAN_MOTION_DDOT>0</MEAN_MOTION_DDOT></tleParameters></data></segment></body></omm>
<omm id="CCSDS_OMM_VERS" version="2.0">
<header><CREATION_DATE/><ORIGINATOR/></header><body><segment><metadata><OBJECT_NAME>KUIPER-00101</OBJECT_NAME><OBJECT_ID>2025-228A</OBJECT_ID><CENTER_NAME>EARTH</CENTER_NAME><REF_FRAME>TEME</REF_FRAME><TIME_SYSTEM>UTC</TIME_SYSTEM><MEAN_ELEMENT_THEORY>SGP4</MEAN_ELEMENT_THEORY></metadata><data><meanElements><EPOCH>2026-01-16T13:29:36.277152</EPOCH><MEAN_MOTION>14.79941800</MEAN_MOTION><ECCENTRICITY>.00012228</ECCENTRICITY><INCLINATION>51.8975</INCLINATION><RA_OF_ASC_NODE>231.0955</RA_OF_ASC_NODE><ARG_OF_PERICENTER>95.2463</ARG_OF_PERICENTER><MEAN_ANOMALY>264.8639</MEAN_ANOMALY></meanElements><tleParameters><EPHEMERIS_TYPE>0</EPHEMERIS_TYPE><CLASSIFICATION_TYPE>U</CLASSIFICATION_TYPE><NORAD_CAT_ID>65947</NORAD_CAT_ID><ELEMENT_SET_NO>999</ELEMENT_SET_NO><REV_AT_EPOCH>1551</REV_AT_EPOCH><BSTAR>.29910006E-3</BSTAR><MEAN_MOTION_DOT>.206E-4</MEAN_MOTION_DOT><MEAN_MOTION_DDOT>0</MEAN_MOTION_DDOT></tleParameters></data></segment></body></omm>
<omm id="CCSDS_OMM_VERS" version="2.0">
<header><CREATION_DATE/><ORIGINATOR/></header><body><segment><metadata><OBJECT_NAME>KUIPER-00113</OBJECT_NAME><OBJECT_ID>2025-228B</OBJECT_ID><CENTER_NAME>EARTH</CENTER_NAME><REF_FRAME>TEME</REF_FRAME><TIME_SYSTEM>UTC</TIME_SYSTEM><MEAN_ELEMENT_THEORY>SGP4</MEAN_ELEMENT_THEORY></metadata><data><meanElements><EPOCH>2026-01-16T14:25:56.556192</EPOCH><MEAN_MOTION>14.79953388</MEAN_MOTION><ECCENTRICITY>.00006291</ECCENTRICITY><INCLINATION>51.8967</INCLINATION><RA_OF_ASC_NODE>225.9389</RA_OF_ASC_NODE><ARG_OF_PERICENTER>117.8499</ARG_OF_PERICENTER><MEAN_ANOMALY>242.2527</MEAN_ANOMALY></meanElements><tleParameters><EPHEMERIS_TYPE>0</EPHEMERIS_TYPE><CLASSIFICATION_TYPE>U</CLASSIFICATION_TYPE><NORAD_CAT_ID>65948</NORAD_CAT_ID><ELEMENT_SET_NO>999</ELEMENT_SET_NO><REV_AT_EPOCH>1558</REV_AT_EPOCH><BSTAR>.2866902E-3</BSTAR><MEAN_MOTION_DOT>.1966E-4</MEAN_MOTION_DOT><MEAN_MOTION_DDOT>0</MEAN_MOTION_DDOT></tleParameters></data></segment></body></omm>
<omm id="CCSDS_OMM_VERS" version="2.0">
<header><CREATION_DATE/><ORIGINATOR/></header><body><segment><metadata><OBJECT_NAME>KUIPER-00117</OBJECT_NAME><OBJECT_ID>2025-228C</OBJECT_ID><CENTER_NAME>EARTH</CENTER_NAME><REF_FRAME>TEME</REF_FRAME><TIME_SYSTEM>UTC</TIME_SYSTEM><MEAN_ELEMENT_THEORY>SGP4</MEAN_ELEMENT_THEORY></metadata><data><meanElements><EPOCH>2026-01-16T13:33:26.010432</EPOCH><MEAN_MOTION>14.79946124</MEAN_MOTION><ECCENTRICITY>.00009043</ECCENTRICITY><INCLINATION>51.8980</INCLINATION><RA_OF_ASC_NODE>228.6020</RA_OF_ASC_NODE><ARG_OF_PERICENTER>119.5017</ARG_OF_PERICENTER><MEAN_ANOMALY>240.6035</MEAN_ANOMALY></meanElements><tleParameters><EPHEMERIS_TYPE>0</EPHEMERIS_TYPE><CLASSIFICATION_TYPE>U</CLASSIFICATION_TYPE><NORAD_CAT_ID>65949</NORAD_CAT_ID><ELEMENT_SET_NO>999</ELEMENT_SET_NO><REV_AT_EPOCH>1554</REV_AT_EPOCH><BSTAR>.28616603E-3</BSTAR><MEAN_MOTION_DOT>.1962E-4</MEAN_MOTION_DOT><MEAN_MOTION_DDOT>0</MEAN_MOTION_DDOT></tleParameters></data></segment></body></omm>
<omm id="CCSDS_OMM_VERS" version="2.0">
<header><CREATION_DATE/><ORIGINATOR/></header><body><segment><metadata><OBJECT_NAME>KUIPER-00121</OBJECT_NAME><OBJECT_ID>2025-228D</OBJECT_ID><CENTER_NAME>EARTH</CENTER_NAME><REF_FRAME>TEME</REF_FRAME><TIME_SYSTEM>UTC</TIME_SYSTEM><MEAN_ELEMENT_THEORY>SGP4</MEAN_ELEMENT_THEORY></metadata><data><meanElements><EPOCH>2026-01-16T14:00:03.000384</EPOCH><MEAN_MOTION>14.76861826</MEAN_MOTION><ECCENTRICITY>.00011285</ECCENTRICITY><INCLINATION>51.8976</INCLINATION><RA_OF_ASC_NODE>223.4369</RA_OF_ASC_NODE><ARG_OF_PERICENTER>86.9347</ARG_OF_PERICENTER><MEAN_ANOMALY>200.1078</MEAN_ANOMALY></meanElements><tleParameters><EPHEMERIS_TYPE>0</EPHEMERIS_TYPE><CLASSIFICATION_TYPE>U</CLASSIFICATION_TYPE><NORAD_CAT_ID>65950</NORAD_CAT_ID><ELEMENT_SET_NO>999</ELEMENT_SET_NO><REV_AT_EPOCH>494</REV_AT_EPOCH><BSTAR>.8317683E-2</BSTAR><MEAN_MOTION_DOT>.59277E-3</MEAN_MOTION_DOT><MEAN_MOTION_DDOT>0</MEAN_MOTION_DDOT></tleParameters></data></segment></body></omm>
<omm id="CCSDS_OMM_VERS" version="2.0">
<header><CREATION_DATE/><ORIGINATOR/></header><body><segment><metadata><OBJECT_NAME>KUIPER-00122</OBJECT_NAME><OBJECT_ID>2025-228E</OBJECT_ID><CENTER_NAME>EARTH</CENTER_NAME><REF_FRAME>TEME</REF_FRAME><TIME_SYSTEM>UTC</TIME_SYSTEM><MEAN_ELEMENT_THEORY>SGP4</MEAN_ELEMENT_THEORY></metadata><data><meanElements><EPOCH>2026-01-16T07:45:30.379392</EPOCH><MEAN_MOTION>14.79956186</MEAN_MOTION><ECCENTRICITY>.0001704</ECCENTRICITY><INCLINATION>51.8960</INCLINATION><RA_OF_ASC_NODE>234.6414</RA_OF_ASC_NODE><ARG_OF_PERICENTER>127.0496</ARG_OF_PERICENTER><MEAN_ANOMALY>233.0622</MEAN_ANOMALY></meanElements><tleParameters><EPHEMERIS_TYPE>0</EPHEMERIS_TYPE><CLASSIFICATION_TYPE>U</CLASSIFICATION_TYPE><NORAD_CAT_ID>65951</NORAD_CAT_ID><ELEMENT_SET_NO>999</ELEMENT_SET_NO><REV_AT_EPOCH>1544</REV_AT_EPOCH><BSTAR>.88504703E-3</BSTAR><MEAN_MOTION_DOT>.6536E-4</MEAN_MOTION_DOT><MEAN_MOTION_DDOT>0</MEAN_MOTION_DDOT></tleParameters></data></segment></body></omm>
<omm id="CCSDS_OMM_VERS" version="2.0">
<header><CREATION_DATE/><ORIGINATOR/></header><body><segment><metadata><OBJECT_NAME>KUIPER-00123</OBJECT_NAME><OBJECT_ID>2025-228F</OBJECT_ID><CENTER_NAME>EARTH</CENTER_NAME><REF_FRAME>TEME</REF_FRAME><TIME_SYSTEM>UTC</TIME_SYSTEM><MEAN_ELEMENT_THEORY>SGP4</MEAN_ELEMENT_THEORY></metadata><data><meanElements><EPOCH>2026-01-16T15:03:08.221536</EPOCH><MEAN_MOTION>14.79925748</MEAN_MOTION><ECCENTRICITY>.00006471</ECCENTRICITY><INCLINATION>51.8966</INCLINATION><RA_OF_ASC_NODE>233.3215</RA_OF_ASC_NODE><ARG_OF_PERICENTER>163.0839</ARG_OF_PERICENTER><MEAN_ANOMALY>197.0145</MEAN_ANOMALY></meanElements><tleParameters><EPHEMERIS_TYPE>0</EPHEMERIS_TYPE><CLASSIFICATION_TYPE>U</CLASSIFICATION_TYPE><NORAD_CAT_ID>65952</NORAD_CAT_ID><ELEMENT_SET_NO>999</ELEMENT_SET_NO><REV_AT_EPOCH>1548</REV_AT_EPOCH><BSTAR>.64354035E-3</BSTAR><MEAN_MOTION_DOT>.4687E-4</MEAN_MOTION_DOT><MEAN_MOTION_DDOT>0</MEAN_MOTION_DDOT></tleParameters></data></segment></body></omm>
<omm id="CCSDS_OMM_VERS" version="2.0">
<header><CREATION_DATE/><ORIGINATOR/></header><body><segment><metadata><OBJECT_NAME>KUIPER-00124</OBJECT_NAME><OBJECT_ID>2025-228G</OBJECT_ID><CENTER_NAME>EARTH</CENTER_NAME><REF_FRAME>TEME</REF_FRAME><TIME_SYSTEM>UTC</TIME_SYSTEM><MEAN_ELEMENT_THEORY>SGP4</MEAN_ELEMENT_THEORY></metadata><data><meanElements><EPOCH>2026-01-16T07:08:23.771040</EPOCH><MEAN_MOTION>14.79941484</MEAN_MOTION><ECCENTRICITY>.00007754</ECCENTRICITY><INCLINATION>51.9003</INCLINATION><RA_OF_ASC_NODE>227.2670</RA_OF_ASC_NODE><ARG_OF_PERICENTER>96.1517</ARG_OF_PERICENTER><MEAN_ANOMALY>263.9534</MEAN_ANOMALY></meanElements><tleParameters><EPHEMERIS_TYPE>0</EPHEMERIS_TYPE><CLASSIFICATION_TYPE>U</CLASSIFICATION_TYPE><NORAD_CAT_ID>65953</NORAD_CAT_ID><ELEMENT_SET_NO>999</ELEMENT_SET_NO><REV_AT_EPOCH>1554</REV_AT_EPOCH><BSTAR>-.4298453E-4</BSTAR><MEAN_MOTION_DOT>-.549E-5</MEAN_MOTION_DOT><MEAN_MOTION_DDOT>0</MEAN_MOTION_DDOT></tleParameters></data></segment></body></omm>

</ndm>
